[{"OBJECT_NAME":"STARLINK-36592","OBJECT_ID":"2026-039X","EPOCH":"2026-03-23T04:00:01.999584","MEAN_MOTION":15.50762058,"ECCENTRICITY":0.00016507,"INCLINATION":43,"RA_OF_ASC_NODE":333.5309,"ARG_OF_PERICENTER":284.0639,"MEAN_ANOMALY":170.4603,"EPHEMERIS_TYPE":0,"CLASSIFICATION_TYPE":"U","NORAD_CAT_ID":68007,"ELEMENT_SET_NO":999,"REV_AT_EPOCH":504,"BSTAR":-0.009852221,"MEAN_MOTION_DOT":-0.0054348,"MEAN_MOTION_DDOT":0},{"OBJECT_NAME":"STARLINK-36911","OBJECT_ID":"2026-039Y","EPOCH":"2026-03-23T04:00:01.999584","MEAN_MOTION":15.50479293,"ECCENTRICITY":0.00015744,"INCLINATION":43.0001,"RA_OF_ASC_NODE":333.6205,"ARG_OF_PERICENTER":281.4526,"MEAN_ANOMALY":136.7767,"EPHEMERIS_TYPE":0,"CLASSIFICATION_TYPE":"U","NORAD_CAT_ID":68008,"ELEMENT_SET_NO":999,"REV_AT_EPOCH":504,"BSTAR":0.0020944875,"MEAN_MOTION_DOT":0.00124056,"MEAN_MOTION_DDOT":0},{"OBJECT_NAME":"STARLINK-36956","OBJECT_ID":"2026-039Z","EPOCH":"2026-03-23T04:00:01.999584","MEAN_MOTION":15.50675382,"ECCENTRICITY":0.00021156,"INCLINATION":43.0001,"RA_OF_ASC_NODE":333.6868,"ARG_OF_PERICENTER":266.1752,"MEAN_ANOMALY":125.1169,"EPHEMERIS_TYPE":0,"CLASSIFICATION_TYPE":"U","NORAD_CAT_ID":68009,"ELEMENT_SET_NO":999,"REV_AT_EPOCH":504,"BSTAR":-0.0041533217,"MEAN_MOTION_DOT":-0.00237591,"MEAN_MOTION_DDOT":0},{"OBJECT_NAME":"STARLINK-36953","OBJECT_ID":"2026-039AA","EPOCH":"2026-03-23T04:00:01.999584","MEAN_MOTION":15.50409548,"ECCENTRICITY":0.00012708,"INCLINATION":42.9996,"RA_OF_ASC_NODE":333.1688,"ARG_OF_PERICENTER":255.9265,"MEAN_ANOMALY":344.9918,"EPHEMERIS_TYPE":0,"CLASSIFICATION_TYPE":"U","NORAD_CAT_ID":68010,"ELEMENT_SET_NO":999,"REV_AT_EPOCH":504,"BSTAR":-0.035159333,"MEAN_MOTION_DOT":-0.01816378,"MEAN_MOTION_DDOT":0},{"OBJECT_NAME":"STARLINK-36991","OBJECT_ID":"2026-039AB","EPOCH":"2026-03-22T00:00:02.000160","MEAN_MOTION":15.50488205,"ECCENTRICITY":0.00021159,"INCLINATION":42.9998,"RA_OF_ASC_NODE":341.1865,"ARG_OF_PERICENTER":277.689,"MEAN_ANOMALY":159.1594,"EPHEMERIS_TYPE":0,"CLASSIFICATION_TYPE":"U","NORAD_CAT_ID":68011,"ELEMENT_SET_NO":999,"REV_AT_EPOCH":485,"BSTAR":0.0011428067,"MEAN_MOTION_DOT":0.00067062,"MEAN_MOTION_DDOT":0},{"OBJECT_NAME":"STARLINK-36936","OBJECT_ID":"2026-039AC","EPOCH":"2026-03-23T04:00:01.999584","MEAN_MOTION":15.50666678,"ECCENTRICITY":0.00018111,"INCLINATION":43.0002,"RA_OF_ASC_NODE":333.647,"ARG_OF_PERICENTER":273.5192,"MEAN_ANOMALY":133.2062,"EPHEMERIS_TYPE":0,"CLASSIFICATION_TYPE":"U","NORAD_CAT_ID":68012,"ELEMENT_SET_NO":999,"REV_AT_EPOCH":504,"BSTAR":-0.0037829251,"MEAN_MOTION_DOT":-0.0021692,"MEAN_MOTION_DDOT":0},{"OBJECT_NAME":"STARLINK-36967","OBJECT_ID":"2026-039AD","EPOCH":"2026-03-22T16:32:55.094784","MEAN_MOTION":15.505655,"ECCENTRICITY":0.00019629,"INCLINATION":42.9986,"RA_OF_ASC_NODE":337.0781,"ARG_OF_PERICENTER":254.0409,"MEAN_ANOMALY":106.0235,"EPHEMERIS_TYPE":0,"CLASSIFICATION_TYPE":"U","NORAD_CAT_ID":68013,"ELEMENT_SET_NO":999,"REV_AT_EPOCH":367,"BSTAR":0.0014796673,"MEAN_MOTION_DOT":0.00087398,"MEAN_MOTION_DDOT":0},{"OBJECT_NAME":"STARLINK-36985","OBJECT_ID":"2026-039AE","EPOCH":"2026-03-23T04:00:01.999584","MEAN_MOTION":15.50880441,"ECCENTRICITY":0.00018911,"INCLINATION":42.9987,"RA_OF_ASC_NODE":333.1143,"ARG_OF_PERICENTER":274.5854,"MEAN_ANOMALY":348.0901,"EPHEMERIS_TYPE":0,"CLASSIFICATION_TYPE":"U","NORAD_CAT_ID":68014,"ELEMENT_SET_NO":999,"REV_AT_EPOCH":504,"BSTAR":-0.019759615,"MEAN_MOTION_DOT":-0.01063538,"MEAN_MOTION_DDOT":0},{"OBJECT_NAME":"STARLINK-36335","OBJECT_ID":"2026-040A","EPOCH":"2026-03-23T04:00:01.999584","MEAN_MOTION":15.75320211,"ECCENTRICITY":0.00017488,"INCLINATION":97.2867,"RA_OF_ASC_NODE":31.2711,"ARG_OF_PERICENTER":127.598,"MEAN_ANOMALY":336.8685,"EPHEMERIS_TYPE":0,"CLASSIFICATION_TYPE":"U","NORAD_CAT_ID":68015,"ELEMENT_SET_NO":999,"REV_AT_EPOCH":454,"BSTAR":-0.0018961805,"MEAN_MOTION_DOT":-0.00275612,"MEAN_MOTION_DDOT":0},{"OBJECT_NAME":"STARLINK-36923","OBJECT_ID":"2026-040B","EPOCH":"2026-03-23T04:00:01.999584","MEAN_MOTION":15.75100354,"ECCENTRICITY":0.00012209,"INCLINATION":97.2864,"RA_OF_ASC_NODE":31.2757,"ARG_OF_PERICENTER":88.1327,"MEAN_ANOMALY":22.3624,"EPHEMERIS_TYPE":0,"CLASSIFICATION_TYPE":"U","NORAD_CAT_ID":68016,"ELEMENT_SET_NO":999,"REV_AT_EPOCH":459,"BSTAR":0.00045007757,"MEAN_MOTION_DOT":0.00067271,"MEAN_MOTION_DDOT":0},{"OBJECT_NAME":"STARLINK-36568","OBJECT_ID":"2026-040C","EPOCH":"2026-03-23T04:00:01.999584","MEAN_MOTION":15.75153874,"ECCENTRICITY":0.00014775,"INCLINATION":97.2862,"RA_OF_ASC_NODE":31.2756,"ARG_OF_PERICENTER":110.7007,"MEAN_ANOMALY":3.7759,"EPHEMERIS_TYPE":0,"CLASSIFICATION_TYPE":"U","NORAD_CAT_ID":68017,"ELEMENT_SET_NO":999,"REV_AT_EPOCH":459,"BSTAR":-0.0003511598,"MEAN_MOTION_DOT":-0.00052108,"MEAN_MOTION_DDOT":0},{"OBJECT_NAME":"STARLINK-36930","OBJECT_ID":"2026-040D","EPOCH":"2026-03-23T04:00:01.999584","MEAN_MOTION":15.75181611,"ECCENTRICITY":0.00016607,"INCLINATION":97.2865,"RA_OF_ASC_NODE":31.2735,"ARG_OF_PERICENTER":127.6763,"MEAN_ANOMALY":338.8109,"EPHEMERIS_TYPE":0,"CLASSIFICATION_TYPE":"U","NORAD_CAT_ID":68018,"ELEMENT_SET_NO":999,"REV_AT_EPOCH":459,"BSTAR":-0.00078723545,"MEAN_MOTION_DOT":-0.00115936,"MEAN_MOTION_DDOT":0},{"OBJECT_NAME":"STARLINK-36921","OBJECT_ID":"2026-040E","EPOCH":"2026-03-23T04:00:01.999584","MEAN_MOTION":15.75236953,"ECCENTRICITY":0.00014998,"INCLINATION":97.2852,"RA_OF_ASC_NODE":31.287,"ARG_OF_PERICENTER":79.4644,"MEAN_ANOMALY":49.0224,"EPHEMERIS_TYPE":0,"CLASSIFICATION_TYPE":"U","NORAD_CAT_ID":68019,"ELEMENT_SET_NO":999,"REV_AT_EPOCH":459,"BSTAR":-0.0011487697,"MEAN_MOTION_DOT":-0.0016849,"MEAN_MOTION_DDOT":0},{"OBJECT_NAME":"STARLINK-36928","OBJECT_ID":"2026-040F","EPOCH":"2026-03-23T04:00:01.999584","MEAN_MOTION":15.75153126,"ECCENTRICITY":0.00015567,"INCLINATION":97.2859,"RA_OF_ASC_NODE":31.2813,"ARG_OF_PERICENTER":67.1421,"MEAN_ANOMALY":55.3433,"EPHEMERIS_TYPE":0,"CLASSIFICATION_TYPE":"U","NORAD_CAT_ID":68020,"ELEMENT_SET_NO":999,"REV_AT_EPOCH":459,"BSTAR":-0.0003388717,"MEAN_MOTION_DOT":-0.00050299,"MEAN_MOTION_DDOT":0},{"OBJECT_NAME":"STARLINK-36858","OBJECT_ID":"2026-040G","EPOCH":"2026-03-22T22:48:13.467168","MEAN_MOTION":15.75383089,"ECCENTRICITY":0.00011624,"INCLINATION":97.2836,"RA_OF_ASC_NODE":31.2209,"ARG_OF_PERICENTER":109.0153,"MEAN_ANOMALY":251.1238,"EPHEMERIS_TYPE":0,"CLASSIFICATION_TYPE":"U","NORAD_CAT_ID":68021,"ELEMENT_SET_NO":999,"REV_AT_EPOCH":345,"BSTAR":-0.0033921308,"MEAN_MOTION_DOT":-0.00482577,"MEAN_MOTION_DDOT":0},{"OBJECT_NAME":"STARLINK-36916","OBJECT_ID":"2026-040H","EPOCH":"2026-03-23T04:00:01.999584","MEAN_MOTION":15.75159759,"ECCENTRICITY":0.00013616,"INCLINATION":97.2862,"RA_OF_ASC_NODE":31.2841,"ARG_OF_PERICENTER":117.1834,"MEAN_ANOMALY":17.2867,"EPHEMERIS_TYPE":0,"CLASSIFICATION_TYPE":"U","NORAD_CAT_ID":68022,"ELEMENT_SET_NO":999,"REV_AT_EPOCH":459,"BSTAR":-0.00034719043,"MEAN_MOTION_DOT":-0.00051537,"MEAN_MOTION_DDOT":0}]
