STARLINK-36592          
1 68007U 26039X   26082.16668981 -.00543480  00000+0 -98522-2 0  9997
2 68007  43.0000 333.5309 0001650 284.0639 170.4603 15.50762058  5049
STARLINK-36911          
1 68008U 26039Y   26082.16668981  .00124056  00000+0  20945-2 0  9994
2 68008  43.0001 333.6205 0001574 281.4526 136.7767 15.50479293  5040
STARLINK-36956          
1 68009U 26039Z   26082.16668981 -.00237591  00000+0 -41533-2 0  9992
2 68009  43.0001 333.6868 0002115 266.1752 125.1169 15.50675382  5044
STARLINK-36953          
1 68010U 26039AA  26082.16668981 -.01816378  00000+0 -35159-1 0  9997
2 68010  42.9996 333.1688 0001270 255.9265 344.9918 15.50409548  5040
STARLINK-36991          
1 68011U 26039AB  26081.00002315  .00067062  00000+0  11428-2 0  9992
2 68011  42.9998 341.1865 0002115 277.6890 159.1594 15.50488205  4854
STARLINK-36936          
1 68012U 26039AC  26082.16668981 -.00216920  00000+0 -37829-2 0  9992
2 68012  43.0002 333.6470 0001811 273.5192 133.2062 15.50666678  5040
STARLINK-36967          
1 68013U 26039AD  26081.68952656  .00087398  00000+0  14797-2 0  9996
2 68013  42.9986 337.0781 0001962 254.0409 106.0235 15.50565500  3674
STARLINK-36985          
1 68014U 26039AE  26082.16668981 -.01063538  00000+0 -19760-1 0  9993
2 68014  42.9987 333.1143 0001891 274.5854 348.0901 15.50880441  5042
STARLINK-36335          
1 68015U 26040A   26082.16668981 -.00275612  00000+0 -18962-2 0  9997
2 68015  97.2867  31.2711 0001748 127.5980 336.8685 15.75320211  4547
STARLINK-36923          
1 68016U 26040B   26082.16668981  .00067271  00000+0  45008-3 0  9998
2 68016  97.2864  31.2757 0001220  88.1327  22.3624 15.75100354  4596
STARLINK-36568          
1 68017U 26040C   26082.16668981 -.00052108  00000+0 -35116-3 0  9993
2 68017  97.2862  31.2756 0001477 110.7007   3.7759 15.75153874  4592
STARLINK-36930          
1 68018U 26040D   26082.16668981 -.00115936  00000+0 -78724-3 0  9995
2 68018  97.2865  31.2735 0001660 127.6763 338.8109 15.75181611  4594
STARLINK-36921          
1 68019U 26040E   26082.16668981 -.00168490  00000+0 -11488-2 0  9992
2 68019  97.2852  31.2870 0001499  79.4644  49.0224 15.75236953  4592
STARLINK-36928          
1 68020U 26040F   26082.16668981 -.00050299  00000+0 -33887-3 0  9999
2 68020  97.2859  31.2813 0001556  67.1421  55.3433 15.75153126  4591
STARLINK-36858          
1 68021U 26040G   26081.95015587 -.00482577  00000+0 -33921-2 0  9990
2 68021  97.2836  31.2209 0001162 109.0153 251.1238 15.75383089  3453
STARLINK-36916          
1 68022U 26040H   26082.16668981 -.00051537  00000+0 -34719-3 0  9992
2 68022  97.2862  31.2841 0001361 117.1834  17.2867 15.75159759  4592
